[Satellite]
VERSION=1.1
NAME=MOZHAYETS 4 (RS-22)
NICKNAME=RS-22
TLE1=1 27939U 03042A   15055.45513480  .00001088  00000-0  20740-3 0  9998
TLE2=2 27939  97.8304 222.4609 0013810  31.6735 328.5305 14.65818335609674
